ENVISAT                 
1 27386U 02009A   23124.53762919  .00000275  00000+0  10402-3 0  9994
2 27386  98.2278  96.3416 0001299  85.1548  26.8718 14.38332491109612
IDEFIX & ARIANE 42P R/B 
1 27422U 02021B   23124.44028860  .00000345  00000+0  15115-3 0  9993
2 27422  98.4885  66.4749 0012590  16.6377 343.5216 14.29670949 95317
AQUA                    
1 27424U 02022A   23124.56290547  .00001130  00000+0  25597-3 0  9990
2 27424  98.2846  69.1384 0001092  53.2145   1.4546 14.58006661116961
CZ-4B R/B               
1 27432U 02024C   23124.61316378  .00000073  00000+0  61337-4 0  9996
2 27432  99.0271 158.7400 0051447  89.7638  21.2243 14.14207274 82214
MIDORI II (ADEOS-II)    
1 27597U 02056A   23124.45092518  .00000331  00000+0  15169-3 0  9990
2 27597  98.6459  69.1702 0001776 114.1069 246.0298 14.27885997 61773
H-2A R/B                
1 27601U 02056E   23124.59074619  .00000481  00000+0  18750-3 0  9998
2 27601  98.1914 118.1904 0072376  24.3190  85.3177 14.32339717 65145
CZ-4B R/B               
1 28059U 03049C   23124.43392809  .00000391  00000+0  10470-3 0  9997
2 28059  98.5577  71.9310 0049907 165.6028 194.6603 14.53141473 35421
CZ-2C R/B               
1 28222U 04012C   23124.55492971  .00008473  00000+0  42329-3 0  9991
2 28222  97.8008 117.7548 0041875  32.8302 327.5519 15.16956155 44831
SL-16 R/B               
1 28353U 04021B   23124.60047636  .00000199  00000+0  12916-3 0  9992
2 28353  71.0014 254.6862 0005531 201.4596 158.6295 14.14325851975753
CZ-4B R/B               
1 28415U 04035C   23124.58878754  .00004789  00000+0  28606-3 0  9998
2 28415  97.4729 162.7234 0047253   0.2729 359.8518 15.10625336 22034
CZ-2C R/B               
1 28480U 04046B   23124.50659737  .00000343  00000+0  14489-3 0  9998
2 28480  98.1080  92.6292 0141235 352.0095   7.8837 14.26017303960195
ARIANE 5 R/B            
1 28499U 04049H   23124.32505375  .00001460  00000+0  18180-3 0  9992
2 28499  98.1290 249.7096 0091504 117.5763 297.2611 14.81191540991561
CZ-2D R/B               
1 28738U 05024B   23124.55381476  .00007562  00000+0  37826-3 0  9998
2 28738  97.3542 127.2954 0012136 135.5461 224.6749 15.17636962980375
SUZAKU (ASTRO-EII)      
1 28773U 05025A   23124.34315553  .00012267  00000+0  43870-3 0  9992
2 28773  31.3778 356.2342 0003432  26.3631 333.7193 15.27557279984006
ALOS (DAICHI)           
1 28931U 06002A   23124.44168076  .00001450  00000+0  28488-3 0  9991
2 28931  97.9813  83.2696 0002031  50.2204 309.9175 14.64079070921379
H-2A R/B                
1 28932U 06002B   23124.51920780  .00005689  00000+0  47853-3 0  9993
2 28932  98.2436 189.1310 0084160 116.6124 244.3749 14.95946994937991
RESURS-DK 1             
1 29228U 06021A   23124.43736045  .00001832  00000+0  13699-3 0  9990
2 29228  69.9381  30.3136 0007576 277.9142  82.1160 15.04669272930635
GENESIS 1               
1 29252U 06029A   23124.30605714  .00008717  00000+0  34108-3 0  9996
2 29252  64.5191  94.2792 0030392 217.1640 142.7384 15.25996580927826
CZ-4B R/B               
1 29507U 06046C   23124.60185108  .00002394  00000+0  17566-3 0  9995
2 29507  97.6907 158.0725 0042350 226.7132 133.0558 15.03760514903096
CZ-2C R/B               
1 31114U 07010B   23124.41915464  .00000124  00000+0  75900-4 0  9995
2 31114  98.2745 280.8757 0060811  82.3521 278.4558 14.19561931832092
COSMO-SKYMED 1          
1 31598U 07023A   23124.54965794  .00002230  00000+0  28664-3 0  9994
2 31598  97.8878 308.6574 0001176  85.6713 274.4751 14.82156913860524
GENESIS 2               
1 31789U 07028A   23124.42756290  .00008145  00000+0  32041-3 0  9992
2 31789  64.4923 137.9348 0058213 267.9405  91.5054 15.24742880874739
COSMOS 2428             
1 31792U 07029A   23124.55690010 -.00000183  00000+0 -73158-4 0  9999
2 31792  70.9342 226.3497 0010311 294.8170  65.1878 14.12552899817196
SL-16 R/B               
1 31793U 07029B   23124.59535652 -.00000030  00000+0  91256-5 0  9994
2 31793  70.9766 198.1885 0002101 266.2971 195.9011 14.14536277818279
KORONAS-FOTON           
1 33504U 09003A   23124.56076513  .00005833  00000+0  26838-3 0  9990
2 33504  82.4398 255.0544 0016738 232.4460 127.5255 15.20015042786684
CZ-2C R/B               
1 37731U 11030B   23124.52623476  .00001409  00000+0  20631-3 0  9991
2 37731  97.7111 100.3657 0059384 127.3934 345.6845 14.75930663636395
H-2A R/B                
1 38341U 12025E   23124.57472745  .00002081  00000+0  23937-3 0  9999
2 38341  98.4620   5.6171 0054880  92.7565 267.9931 14.85929952593311
CUSAT 2 & FALCON 9 R/B  
1 39271U 13055G   23124.54968869  .00042887  00000+0  79071-3 0  9998
2 39271  80.9530 197.2135 0455487 197.6846 160.8062 14.81473110503978
SHIJIAN-16 (SJ-16)      
1 39358U 13057A   23124.54102502  .00001977  00000+0  22286-3 0  9991
2 39358  74.9755 345.9498 0017985 110.0574 250.2532 14.87060575516708
CZ-2C R/B               
1 39364U 13059B   23124.41503770  .00018754  00000+0  44495-3 0  9995
2 39364  97.1092 172.5430 0032788 254.5493 105.2132 15.41185557529447
SL-4 R/B                
1 39679U 14021B   23124.52709096  .00004357  00000+0  20053-3 0  9993
2 39679  51.6130 257.4000 0154758 357.4549   2.5620 15.12473800497632
ALOS-2                  
1 39766U 14029A   23124.52563860  .00000374  00000+0  56896-4 0  9995
2 39766  97.9200 222.0430 0001602  80.6938 279.4455 14.79474432483103
SL-27 R/B               
1 40354U 14084B   23124.50781600  .00015907  00000+0  26537-3 0  9999
2 40354  74.7364   4.3710 0025869  21.3153 338.9136 15.51536942470239
YAOGAN-29               
1 41038U 15069A   23124.60454042  .00000668  00000+0  92596-4 0  9998
2 41038  98.0636 131.5223 0002141 107.2630 252.8810 14.81290340401827
ASTRO-H (HITOMI)        
1 41337U 16012A   23124.55169591  .00002330  00000+0  17198-3 0  9997
2 41337  31.0032 179.7496 0011412  25.7114 334.4088 15.00911512395373
HXMT (HUIYAN)           
1 42758U 17034A   23124.58065253  .00006692  00000+0  38938-3 0  9993
2 42758  43.0181  19.4585 0007119 124.8377 305.3546 15.12545828324777
CZ-2C R/B               
1 43521U 18054D   23124.47954345  .00006129  00000+0  27843-3 0  9990
2 43521  35.1501 166.0224 0070314  52.3582 308.3488 15.17922598268394
AEOLUS                  
1 43600U 18066A   23124.55089541  .00150819  00000+0  57861-3 0  9996
2 43600  96.7175 130.5845 0008652 116.6310 243.5850 15.86962844272040
SAOCOM 1A               
1 43641U 18076A   23124.49052438 -.00000828  00000+0 -97555-4 0  9991
2 43641  97.8891 311.6048 0001274  88.0077 272.1505 14.82138689247284
H-2A R/B                
1 43682U 18084L   23124.57834872  .00005539  00000+0  35459-3 0  9990
2 43682  98.8970 141.8525 0049867 287.9597  71.6195 15.08076651247644
SAOCOM 1B               
1 46265U 20059A   23124.52168145  .00000674  00000+0  91230-4 0  9998
2 46265  97.8895 310.7107 0001292  88.4631 271.6734 14.82146251144681
CSS (TIANHE)            
1 48274U 21035A   23124.79748601  .00041354  00000+0  44780-3 0  9992
2 48274  41.4747  59.8794 0006181 194.8836 258.8225 15.62764043115053
2022-019U               
1 51842U 22019U   23124.53202108  .00022457  00000+0  67772-3 0  9998
2 51842  97.5284 210.4947 0058352 137.5737 347.6913 15.32576561 65779
CZ-2C R/B               
1 52794U 22058K   23124.25055440  .00005924  00000+0  29796-3 0  9996
2 52794  50.1712  78.6396 0095800 290.3654  68.7028 15.14655239 50833
CZ-2C R/B               
1 53131U 22082D   23124.57487655  .00028570  00000+0  55373-3 0  9993
2 53131  97.3482 138.9641 0039473  39.9404 320.4737 15.46784230 45033
